{
"type": "FeatureCollection",
"name": "bscoming",
"crs": { "type": "name", "properties": { "name": "urn:ogc:def:crs:OGC:1.3:CRS84" } },
"features": [
{ "type": "Feature", "properties": { "place_name": "P&R Lincolnsiedlung", "status": "Errichtung folgt demnächst", "lat": "52,31159602", "lng": "10,51544974" }, "geometry": { "type": "Point", "coordinates": [ 10.51544974, 52.31159602 ] } },
{ "type": "Feature", "properties": { "place_name": "P&R Thüringenplatz", "status": "Errichtung folgt demnächst", "lat": "52,23022265", "lng": "10,5339566" }, "geometry": { "type": "Point", "coordinates": [ 10.5339566, 52.23022265 ] } },
{ "type": "Feature", "properties": { "place_name": "Richterstraße", "status": "potenzieller Standort", "lat": "52,274189", "lng": "10,544808" }, "geometry": { "type": "Point", "coordinates": [ 10.544808, 52.274189 ] } },
{ "type": "Feature", "properties": { "place_name": "Kolleg", "status": "potenzieller Standort", "lat": "52,241357", "lng": "10,527468" }, "geometry": { "type": "Point", "coordinates": [ 10.527468, 52.241357 ] } },
{ "type": "Feature", "properties": { "place_name": "HEH", "status": "potenzieller Standort", "lat": "52,233284", "lng": "10,525477" }, "geometry": { "type": "Point", "coordinates": [ 10.525477, 52.233284 ] } },
{ "type": "Feature", "properties": { "place_name": "Stadion Braunschweig", "status": "potenzieller Standort", "lat": "52,29142621", "lng": "10,51861617" }, "geometry": { "type": "Point", "coordinates": [ 10.51861617, 52.29142621 ] } },
{ "type": "Feature", "properties": { "place_name": "Am Schwarzen Berg", "status": "potenzieller Standort", "lat": "52,29103475", "lng": "10,50987654" }, "geometry": { "type": "Point", "coordinates": [ 10.50987654, 52.29103475 ] } },
{ "type": "Feature", "properties": { "place_name": "Kanzlerfeld (Paracelsusstraße)", "status": "potenzieller Standort", "lat": "52,28486941", "lng": "10,45686982" }, "geometry": { "type": "Point", "coordinates": [ 10.45686982, 52.28486941 ] } },
{ "type": "Feature", "properties": { "place_name": "Waller Weg (Veltenhof)", "status": "potenzieller Standort", "lat": "52,30690723", "lng": "10,49033383" }, "geometry": { "type": "Point", "coordinates": [ 10.49033383, 52.30690723 ] } },
{ "type": "Feature", "properties": { "place_name": "Am Feuerteich (Volkmarode)", "status": "potenzieller Standort", "lat": "52,29042206", "lng": "10,59822054" }, "geometry": { "type": "Point", "coordinates": [ 10.59822054, 52.29042206 ] } },
{ "type": "Feature", "properties": { "place_name": "Welfenplatz (Südstadt)", "status": "potenzieller Standort", "lat": "52,23396225", "lng": "10,55856363" }, "geometry": { "type": "Point", "coordinates": [ 10.55856363, 52.23396225 ] } },
{ "type": "Feature", "properties": { "place_name": "Lindenbergplatz", "status": "potenzieller Standort", "lat": "52,24567434", "lng": "10,56283558" }, "geometry": { "type": "Point", "coordinates": [ 10.56283558, 52.24567434 ] } },
{ "type": "Feature", "properties": { "place_name": "Gemeindestraße (Rautheim)", "status": "potenzieller Standort", "lat": "52,23980741", "lng": "10,5819927" }, "geometry": { "type": "Point", "coordinates": [ 10.5819927, 52.23980741 ] } },
{ "type": "Feature", "properties": { "place_name": "Hermann-Blenk-Straße - IFL", "status": "potenzieller Standort", "lat": "52,31427915", "lng": "10,54755516" }, "geometry": { "type": "Point", "coordinates": [ 10.54755516, 52.31427915 ] } },
{ "type": "Feature", "properties": { "place_name": "Galeria", "status": "potenzieller Standort", "lat": "52,26336191", "lng": "10,51955775" }, "geometry": { "type": "Point", "coordinates": [ 10.51955775, 52.26336191 ] } },
{ "type": "Feature", "properties": { "place_name": "P+R Rote Wiese", "status": "potenzieller Standort", "lat": "52,23991896", "lng": "10,53830485" }, "geometry": { "type": "Point", "coordinates": [ 10.53830485, 52.23991896 ] } },
{ "type": "Feature", "properties": { "place_name": "Tostmannplatz (Schuntersiedlung)", "status": "potenzieller Standort", "lat": "52,29624505", "lng": "10,53998684" }, "geometry": { "type": "Point", "coordinates": [ 10.53998684, 52.29624505 ] } },
{ "type": "Feature", "properties": { "place_name": "Theaterwall", "status": "potenzieller Standort", "lat": "52,26953954", "lng": "10,53013035" }, "geometry": { "type": "Point", "coordinates": [ 10.53013035, 52.26953954 ] } },
{ "type": "Feature", "properties": { "place_name": "P&R Gänsekamp", "status": "potenzieller Standort", "lat": "52,26879079", "lng": "10,56626858" }, "geometry": { "type": "Point", "coordinates": [ 10.56626858, 52.26879079 ] } },
{ "type": "Feature", "properties": { "place_name": "Städtisches Klinikum Braunschweig", "status": "potenzieller Standort", "lat": "52,236764142170294", "lng": "10,54467547302203" }, "geometry": { "type": "Point", "coordinates": [ 10.54467547302203, 52.236764142170294 ] } },
{ "type": "Feature", "properties": { "place_name": "Wiener Straße", "status": "potenzieller Standort", "lat": "52,29835720434977", "lng": "10,520485569122693" }, "geometry": { "type": "Point", "coordinates": [ 10.520485569122693, 52.29835720434977 ] } }
]
}
