{
"type": "FeatureCollection",
"name": "20250714BS_veloleo_stations-static",
"crs": { "type": "name", "properties": { "name": "urn:ogc:def:crs:OGC:1.3:CRS84" } },
"features": [
{ "type": "Feature", "properties": { "station_number": "28838", "place_name": "Isarstraße ", "lat": "52,24224575", "lng": "10,48002745" }, "geometry": { "type": "Point", "coordinates": [ 10.48002745, 52.24224575 ] } },
{ "type": "Feature", "properties": { "station_number": "28855", "place_name": "Lichtwerkhöfe ", "lat": "52,28165935", "lng": "10,53047366" }, "geometry": { "type": "Point", "coordinates": [ 10.53047366, 52.28165935 ] } },
{ "type": "Feature", "properties": { "station_number": "28856", "place_name": "P&R Thüringenplatz", "lat": "52,23022265", "lng": "10,5339566" }, "geometry": { "type": "Point", "coordinates": [ 10.5339566, 52.23022265 ] } },
{ "type": "Feature", "properties": { "station_number": "28857", "place_name": "P&R Lincolnsiedlung ", "lat": "52,31159602", "lng": "10,51544974" }, "geometry": { "type": "Point", "coordinates": [ 10.51544974, 52.31159602 ] } },
{ "type": "Feature", "properties": { "station_number": "28859", "place_name": "Cyriaksring", "lat": "52,25521396", "lng": "10,50700828" }, "geometry": { "type": "Point", "coordinates": [ 10.50700828, 52.25521396 ] } },
{ "type": "Feature", "properties": { "station_number": "28860", "place_name": "Kälberwiese", "lat": "52,26665179", "lng": "10,49858623" }, "geometry": { "type": "Point", "coordinates": [ 10.49858623, 52.26665179 ] } },
{ "type": "Feature", "properties": { "station_number": "28862", "place_name": "Stadthalle ", "lat": "52,2593676", "lng": "10,53989478" }, "geometry": { "type": "Point", "coordinates": [ 10.53989478, 52.2593676 ] } },
{ "type": "Feature", "properties": { "station_number": "28863", "place_name": "Saalestraße", "lat": "52,24493146", "lng": "10,47144323" }, "geometry": { "type": "Point", "coordinates": [ 10.47144323, 52.24493146 ] } },
{ "type": "Feature", "properties": { "station_number": "28866", "place_name": "Hugo-Luther-Straße", "lat": "52,25005996", "lng": "10,50563435" }, "geometry": { "type": "Point", "coordinates": [ 10.50563435, 52.25005996 ] } },
{ "type": "Feature", "properties": { "station_number": "28867", "place_name": "Siegfriedstr.", "lat": "52,287862", "lng": "10,529124" }, "geometry": { "type": "Point", "coordinates": [ 10.529124, 52.287862 ] } },
{ "type": "Feature", "properties": { "station_number": "28868", "place_name": "Freyastr.", "lat": "52,284303", "lng": "10,535997" }, "geometry": { "type": "Point", "coordinates": [ 10.535997, 52.284303 ] } },
{ "type": "Feature", "properties": { "station_number": "28869", "place_name": "Burgundenplatz", "lat": "52,287211", "lng": "10,533142" }, "geometry": { "type": "Point", "coordinates": [ 10.533142, 52.287211 ] } },
{ "type": "Feature", "properties": { "station_number": "28870", "place_name": "Nibelungenplatz", "lat": "52,286415", "lng": "10,527172" }, "geometry": { "type": "Point", "coordinates": [ 10.527172, 52.286415 ] } },
{ "type": "Feature", "properties": { "station_number": "28871", "place_name": "Wasserwelten", "lat": "52,286017", "lng": "10,518707" }, "geometry": { "type": "Point", "coordinates": [ 10.518707, 52.286017 ] } },
{ "type": "Feature", "properties": { "station_number": "28872", "place_name": "Bürger-Badepark", "lat": "52,25787", "lng": "10,52276" }, "geometry": { "type": "Point", "coordinates": [ 10.52276, 52.25787 ] } },
{ "type": "Feature", "properties": { "station_number": "28873", "place_name": "Am Ölper Berge", "lat": "52,277067", "lng": "10,501331" }, "geometry": { "type": "Point", "coordinates": [ 10.501331, 52.277067 ] } },
{ "type": "Feature", "properties": { "station_number": "28874", "place_name": "Herzogin-Elisabeth-Straße", "lat": "52,262789", "lng": "10,552505" }, "geometry": { "type": "Point", "coordinates": [ 10.552505, 52.262789 ] } },
{ "type": "Feature", "properties": { "station_number": "28875", "place_name": "Packhof/Am Schild", "lat": "52,26554744", "lng": "10,51988661" }, "geometry": { "type": "Point", "coordinates": [ 10.51988661, 52.26554744 ] } },
{ "type": "Feature", "properties": { "station_number": "28876", "place_name": "Schlossarkaden", "lat": "52,26262", "lng": "10,52753" }, "geometry": { "type": "Point", "coordinates": [ 10.52753, 52.26262 ] } },
{ "type": "Feature", "properties": { "station_number": "28877", "place_name": "Friedrich-Wilhelm-Platz/Am Bruchtor", "lat": "52,260863", "lng": "10,518555" }, "geometry": { "type": "Point", "coordinates": [ 10.518555, 52.260863 ] } },
{ "type": "Feature", "properties": { "station_number": "28878", "place_name": "Mensa 1", "lat": "52,274161", "lng": "10,528604" }, "geometry": { "type": "Point", "coordinates": [ 10.528604, 52.274161 ] } },
{ "type": "Feature", "properties": { "station_number": "28879", "place_name": "Alsterplatz", "lat": "52,251082", "lng": "10,476758" }, "geometry": { "type": "Point", "coordinates": [ 10.476758, 52.251082 ] } },
{ "type": "Feature", "properties": { "station_number": "28880", "place_name": "BraWoPark", "lat": "52,255934", "lng": "10,543315" }, "geometry": { "type": "Point", "coordinates": [ 10.543315, 52.255934 ] } },
{ "type": "Feature", "properties": { "station_number": "28881", "place_name": "Hauptbahnhof", "lat": "52,253017", "lng": "10,538013" }, "geometry": { "type": "Point", "coordinates": [ 10.538013, 52.253017 ] } },
{ "type": "Feature", "properties": { "station_number": "28882", "place_name": "Ortsbücherei Lehndor", "lat": "52,274374", "lng": "10,482882" }, "geometry": { "type": "Point", "coordinates": [ 10.482882, 52.274374 ] } },
{ "type": "Feature", "properties": { "station_number": "28883", "place_name": "Schunterwohnheime", "lat": "52,30088435", "lng": "10,54546235" }, "geometry": { "type": "Point", "coordinates": [ 10.54546235, 52.30088435 ] } },
{ "type": "Feature", "properties": { "station_number": "28884", "place_name": "Campus Nord - Parkplatz", "lat": "52,284217", "lng": "10,538917" }, "geometry": { "type": "Point", "coordinates": [ 10.538917, 52.284217 ] } },
{ "type": "Feature", "properties": { "station_number": "28885", "place_name": "Campus Ost - Mensa 2 - Nordseite", "lat": "52,28041348", "lng": "10,5445893" }, "geometry": { "type": "Point", "coordinates": [ 10.5445893, 52.28041348 ] } },
{ "type": "Feature", "properties": { "station_number": "28886", "place_name": "Campus Ost - Mensa 2 - Südseite", "lat": "52,27973083", "lng": "10,54475291" }, "geometry": { "type": "Point", "coordinates": [ 10.54475291, 52.27973083 ] } },
{ "type": "Feature", "properties": { "station_number": "28887", "place_name": "Bhf Gliesmarode", "lat": "52,2772506", "lng": "10,55046199" }, "geometry": { "type": "Point", "coordinates": [ 10.55046199, 52.2772506 ] } },
{ "type": "Feature", "properties": { "station_number": "28888", "place_name": "Rechenzentrum", "lat": "52,2762483", "lng": "10,54154834" }, "geometry": { "type": "Point", "coordinates": [ 10.54154834, 52.2762483 ] } },
{ "type": "Feature", "properties": { "station_number": "28889", "place_name": "Langer Kamp - Nord", "lat": "52,27776194", "lng": "10,53755164" }, "geometry": { "type": "Point", "coordinates": [ 10.53755164, 52.27776194 ] } },
{ "type": "Feature", "properties": { "station_number": "28890", "place_name": "Langer Kamp - Süd", "lat": "52,27650099", "lng": "10,53820651" }, "geometry": { "type": "Point", "coordinates": [ 10.53820651, 52.27650099 ] } },
{ "type": "Feature", "properties": { "station_number": "28891", "place_name": "Zentralcampus (Mensa1)", "lat": "52,27523975", "lng": "10,52606236" }, "geometry": { "type": "Point", "coordinates": [ 10.52606236, 52.27523975 ] } },
{ "type": "Feature", "properties": { "station_number": "28892", "place_name": "Zentralcampus Hagenring", "lat": "52,27376773", "lng": "10,5362773" }, "geometry": { "type": "Point", "coordinates": [ 10.5362773, 52.27376773 ] } },
{ "type": "Feature", "properties": { "station_number": "28893", "place_name": "Schloss Ost", "lat": "52,26412841", "lng": "10,52989923" }, "geometry": { "type": "Point", "coordinates": [ 10.52989923, 52.26412841 ] } },
{ "type": "Feature", "properties": { "station_number": "28894", "place_name": "Schloss West", "lat": "52,26386411", "lng": "10,52828722" }, "geometry": { "type": "Point", "coordinates": [ 10.52828722, 52.26386411 ] } },
{ "type": "Feature", "properties": { "station_number": "28895", "place_name": "Radeklint 2", "lat": "52,26703444", "lng": "10,51568875" }, "geometry": { "type": "Point", "coordinates": [ 10.51568875, 52.26703444 ] } },
{ "type": "Feature", "properties": { "station_number": "28896", "place_name": "Donauknoten", "lat": "52,24851601", "lng": "10,48668416" }, "geometry": { "type": "Point", "coordinates": [ 10.48668416, 52.24851601 ] } },
{ "type": "Feature", "properties": { "station_number": "28897", "place_name": "HBK", "lat": "52,2567316", "lng": "10,50155103" }, "geometry": { "type": "Point", "coordinates": [ 10.50155103, 52.2567316 ] } },
{ "type": "Feature", "properties": { "station_number": "28898", "place_name": "Amalienplatz", "lat": "52,27275975", "lng": "10,50759761" }, "geometry": { "type": "Point", "coordinates": [ 10.50759761, 52.27275975 ] } },
{ "type": "Feature", "properties": { "station_number": "28899", "place_name": "Altewiekring", "lat": "52,26359262", "lng": "10,54287527" }, "geometry": { "type": "Point", "coordinates": [ 10.54287527, 52.26359262 ] } },
{ "type": "Feature", "properties": { "station_number": "28900", "place_name": "Husarenstraße", "lat": "52,2661942", "lng": "10,54171271" }, "geometry": { "type": "Point", "coordinates": [ 10.54171271, 52.2661942 ] } },
{ "type": "Feature", "properties": { "station_number": "28901", "place_name": "Pockelstraße 1", "lat": "52,27347815", "lng": "10,52877965" }, "geometry": { "type": "Point", "coordinates": [ 10.52877965, 52.27347815 ] } },
{ "type": "Feature", "properties": { "station_number": "28902", "place_name": "Allerstraße", "lat": "52,270569", "lng": "10,538693" }, "geometry": { "type": "Point", "coordinates": [ 10.538693, 52.270569 ] } },
{ "type": "Feature", "properties": { "station_number": "28903", "place_name": "Pockelstraße 2", "lat": "52,27304163", "lng": "10,52884014" }, "geometry": { "type": "Point", "coordinates": [ 10.52884014, 52.27304163 ] } },
{ "type": "Feature", "properties": { "station_number": "28904", "place_name": "Am Hauptgüterbahnhof", "lat": "52,255206", "lng": "10,551882" }, "geometry": { "type": "Point", "coordinates": [ 10.551882, 52.255206 ] } },
{ "type": "Feature", "properties": { "station_number": "28905", "place_name": "Am Jödebrunnen", "lat": "52,253667", "lng": "10,496062" }, "geometry": { "type": "Point", "coordinates": [ 10.496062, 52.253667 ] } },
{ "type": "Feature", "properties": { "station_number": "28906", "place_name": "VW-Halle", "lat": "52,256817", "lng": "10,518179" }, "geometry": { "type": "Point", "coordinates": [ 10.518179, 52.256817 ] } },
{ "type": "Feature", "properties": { "station_number": "28907", "place_name": "Benzstraße", "lat": "52,311499", "lng": "10,502605" }, "geometry": { "type": "Point", "coordinates": [ 10.502605, 52.311499 ] } },
{ "type": "Feature", "properties": { "station_number": "28908", "place_name": "Bevenroder Straße", "lat": "52,294397", "lng": "10,560608" }, "geometry": { "type": "Point", "coordinates": [ 10.560608, 52.294397 ] } },
{ "type": "Feature", "properties": { "station_number": "28910", "place_name": "Wilhelm-Bode-Straße/Karlstraße", "lat": "52,27461391", "lng": "10,54290221" }, "geometry": { "type": "Point", "coordinates": [ 10.54290221, 52.27461391 ] } },
{ "type": "Feature", "properties": { "station_number": "28911", "place_name": "Botanischer Garten", "lat": "52,27141887", "lng": "10,53347853" }, "geometry": { "type": "Point", "coordinates": [ 10.53347853, 52.27141887 ] } },
{ "type": "Feature", "properties": { "station_number": "28912", "place_name": "Bürgerpark", "lat": "52,25066359", "lng": "10,52914438" }, "geometry": { "type": "Point", "coordinates": [ 10.52914438, 52.25066359 ] } },
{ "type": "Feature", "properties": { "station_number": "28913", "place_name": "Carl-Miele-Str.", "lat": "52,31413956", "lng": "10,50947025" }, "geometry": { "type": "Point", "coordinates": [ 10.50947025, 52.31413956 ] } },
{ "type": "Feature", "properties": { "station_number": "28914", "place_name": "Dom", "lat": "52,263895", "lng": "10,523475" }, "geometry": { "type": "Point", "coordinates": [ 10.523475, 52.263895 ] } },
{ "type": "Feature", "properties": { "station_number": "28915", "place_name": "Pepperstieg", "lat": "52,2900972", "lng": "10,55313484" }, "geometry": { "type": "Point", "coordinates": [ 10.55313484, 52.2900972 ] } },
{ "type": "Feature", "properties": { "station_number": "28916", "place_name": "Europaplatz", "lat": "52,25732129", "lng": "10,51562017" }, "geometry": { "type": "Point", "coordinates": [ 10.51562017, 52.25732129 ] } },
{ "type": "Feature", "properties": { "station_number": "28918", "place_name": "Georg-Westermann-Allee", "lat": "52,25936984", "lng": "10,54543001" }, "geometry": { "type": "Point", "coordinates": [ 10.54543001, 52.25936984 ] } },
{ "type": "Feature", "properties": { "station_number": "28919", "place_name": "Ringgleis/Kreuzstraße", "lat": "52,261879", "lng": "10,497739" }, "geometry": { "type": "Point", "coordinates": [ 10.497739, 52.261879 ] } },
{ "type": "Feature", "properties": { "station_number": "28920", "place_name": "Goslarsche Straße", "lat": "52,261256", "lng": "10,509161" }, "geometry": { "type": "Point", "coordinates": [ 10.509161, 52.261256 ] } },
{ "type": "Feature", "properties": { "station_number": "28921", "place_name": "Rüningenstraße", "lat": "52,21661257", "lng": "10,50120427" }, "geometry": { "type": "Point", "coordinates": [ 10.50120427, 52.21661257 ] } },
{ "type": "Feature", "properties": { "station_number": "28922", "place_name": "Lampestraße", "lat": "52,27467663", "lng": "10,52218128" }, "geometry": { "type": "Point", "coordinates": [ 10.52218128, 52.27467663 ] } },
{ "type": "Feature", "properties": { "station_number": "28923", "place_name": "Hartgerstrasse", "lat": "52,263672", "lng": "10,547583" }, "geometry": { "type": "Point", "coordinates": [ 10.547583, 52.263672 ] } },
{ "type": "Feature", "properties": { "station_number": "28924", "place_name": "HAU Museum", "lat": "52,262957", "lng": "10,533888" }, "geometry": { "type": "Point", "coordinates": [ 10.533888, 52.262957 ] } },
{ "type": "Feature", "properties": { "station_number": "28925", "place_name": "Heinrichstraße", "lat": "52,269794", "lng": "10,538575" }, "geometry": { "type": "Point", "coordinates": [ 10.538575, 52.269794 ] } },
{ "type": "Feature", "properties": { "station_number": "28926", "place_name": "Frankfurter Platz", "lat": "52,25327211", "lng": "10,51046389" }, "geometry": { "type": "Point", "coordinates": [ 10.51046389, 52.25327211 ] } },
{ "type": "Feature", "properties": { "station_number": "28927", "place_name": "Turmstraße", "lat": "52,23455919", "lng": "10,48200069" }, "geometry": { "type": "Point", "coordinates": [ 10.48200069, 52.23455919 ] } },
{ "type": "Feature", "properties": { "station_number": "28928", "place_name": "Theodor-Heuss-Straße", "lat": "52,252411", "lng": "10,518653" }, "geometry": { "type": "Point", "coordinates": [ 10.518653, 52.252411 ] } },
{ "type": "Feature", "properties": { "station_number": "28929", "place_name": "Hochstraße", "lat": "52,262403", "lng": "10,53878" }, "geometry": { "type": "Point", "coordinates": [ 10.53878, 52.262403 ] } },
{ "type": "Feature", "properties": { "station_number": "28930", "place_name": "Alte Waage", "lat": "52,2671712", "lng": "10,52007417" }, "geometry": { "type": "Point", "coordinates": [ 10.52007417, 52.2671712 ] } },
{ "type": "Feature", "properties": { "station_number": "28931", "place_name": "Im Seumel", "lat": "52,235359", "lng": "10,50733" }, "geometry": { "type": "Point", "coordinates": [ 10.50733, 52.235359 ] } },
{ "type": "Feature", "properties": { "station_number": "28932", "place_name": "Johannes-Selenka-Platz", "lat": "52,25793", "lng": "10,504222" }, "geometry": { "type": "Point", "coordinates": [ 10.504222, 52.25793 ] } },
{ "type": "Feature", "properties": { "station_number": "28933", "place_name": "Tuckermannstraße", "lat": "52,264874", "lng": "10,50536" }, "geometry": { "type": "Point", "coordinates": [ 10.50536, 52.264874 ] } },
{ "type": "Feature", "properties": { "station_number": "28934", "place_name": "Kaiserstraße", "lat": "52,26915711", "lng": "10,52088241" }, "geometry": { "type": "Point", "coordinates": [ 10.52088241, 52.26915711 ] } },
{ "type": "Feature", "properties": { "station_number": "28935", "place_name": "Kasernenstraße", "lat": "52,266115", "lng": "10,536564" }, "geometry": { "type": "Point", "coordinates": [ 10.536564, 52.266115 ] } },
{ "type": "Feature", "properties": { "station_number": "28936", "place_name": "John-F.-Kennedy-Platz", "lat": "52,258534", "lng": "10,52811" }, "geometry": { "type": "Point", "coordinates": [ 10.52811, 52.258534 ] } },
{ "type": "Feature", "properties": { "station_number": "28937", "place_name": "Korfesstraße/Scharnhorststraße", "lat": "52,262636", "lng": "10,549705" }, "geometry": { "type": "Point", "coordinates": [ 10.549705, 52.262636 ] } },
{ "type": "Feature", "properties": { "station_number": "28938", "place_name": "Kreuzteich", "lat": "52,270408", "lng": "10,570778" }, "geometry": { "type": "Point", "coordinates": [ 10.570778, 52.270408 ] } },
{ "type": "Feature", "properties": { "station_number": "28939", "place_name": "Leipziger Straße", "lat": "52,228038", "lng": "10,519519" }, "geometry": { "type": "Point", "coordinates": [ 10.519519, 52.228038 ] } },
{ "type": "Feature", "properties": { "station_number": "28940", "place_name": "Campestraße (vorh. Leisewitzstraße)", "lat": "52,255149", "lng": "10,528383" }, "geometry": { "type": "Point", "coordinates": [ 10.528383, 52.255149 ] } },
{ "type": "Feature", "properties": { "station_number": "28941", "place_name": "Martinifriedhof", "lat": "52,262557", "lng": "10,507122" }, "geometry": { "type": "Point", "coordinates": [ 10.507122, 52.262557 ] } },
{ "type": "Feature", "properties": { "station_number": "28942", "place_name": "Martinikirche", "lat": "52,262354", "lng": "10,515802" }, "geometry": { "type": "Point", "coordinates": [ 10.515802, 52.262354 ] } },
{ "type": "Feature", "properties": { "station_number": "28943", "place_name": "Heideblick", "lat": "52,3266578", "lng": "10,508521" }, "geometry": { "type": "Point", "coordinates": [ 10.508521, 52.3266578 ] } },
{ "type": "Feature", "properties": { "station_number": "28944", "place_name": "Messeweg", "lat": "52,278868", "lng": "10,56831121" }, "geometry": { "type": "Point", "coordinates": [ 10.56831121, 52.278868 ] } },
{ "type": "Feature", "properties": { "station_number": "28945", "place_name": "Zollkamp", "lat": "52,224731", "lng": "10,504064" }, "geometry": { "type": "Point", "coordinates": [ 10.504064, 52.224731 ] } },
{ "type": "Feature", "properties": { "station_number": "28946", "place_name": "Am Grasplatz", "lat": "52,305251", "lng": "10,46657" }, "geometry": { "type": "Point", "coordinates": [ 10.46657, 52.305251 ] } },
{ "type": "Feature", "properties": { "station_number": "28947", "place_name": "Forschungsflughafen", "lat": "52,314487", "lng": "10,55792" }, "geometry": { "type": "Point", "coordinates": [ 10.55792, 52.314487 ] } },
{ "type": "Feature", "properties": { "station_number": "28948", "place_name": "Parkplatz Messegelände", "lat": "52,248897", "lng": "10,517294" }, "geometry": { "type": "Point", "coordinates": [ 10.517294, 52.248897 ] } },
{ "type": "Feature", "properties": { "station_number": "28949", "place_name": "Petzvalstraße", "lat": "52,281536", "lng": "10,575614" }, "geometry": { "type": "Point", "coordinates": [ 10.575614, 52.281536 ] } },
{ "type": "Feature", "properties": { "station_number": "28950", "place_name": "Pfingststraße", "lat": "52,260589", "lng": "10,498848" }, "geometry": { "type": "Point", "coordinates": [ 10.498848, 52.260589 ] } },
{ "type": "Feature", "properties": { "station_number": "28951", "place_name": "Prinzenweg", "lat": "52,258862", "lng": "10,51392" }, "geometry": { "type": "Point", "coordinates": [ 10.51392, 52.258862 ] } },
{ "type": "Feature", "properties": { "station_number": "28952", "place_name": "Triftweg", "lat": "52,26953", "lng": "10,500305" }, "geometry": { "type": "Point", "coordinates": [ 10.500305, 52.26953 ] } },
{ "type": "Feature", "properties": { "station_number": "28953", "place_name": "Schützenplatz ", "lat": "52,28404805", "lng": "10,51878497" }, "geometry": { "type": "Point", "coordinates": [ 10.51878497, 52.28404805 ] } },
{ "type": "Feature", "properties": { "station_number": "28954", "place_name": "Siekgraben", "lat": "52,218946", "lng": "10,520288" }, "geometry": { "type": "Point", "coordinates": [ 10.520288, 52.218946 ] } },
{ "type": "Feature", "properties": { "station_number": "28955", "place_name": "Staatstheater", "lat": "52,265482", "lng": "10,531" }, "geometry": { "type": "Point", "coordinates": [ 10.531, 52.265482 ] } },
{ "type": "Feature", "properties": { "station_number": "28956", "place_name": "Holwedestraße", "lat": "52,266615", "lng": "10,50748" }, "geometry": { "type": "Point", "coordinates": [ 10.50748, 52.266615 ] } },
{ "type": "Feature", "properties": { "station_number": "28957", "place_name": "Stadtpark Haltestelle", "lat": "52,26964", "lng": "10,545559" }, "geometry": { "type": "Point", "coordinates": [ 10.545559, 52.26964 ] } },
{ "type": "Feature", "properties": { "station_number": "28958", "place_name": "Stadtpark Nord", "lat": "52,27130879", "lng": "10,54691255" }, "geometry": { "type": "Point", "coordinates": [ 10.54691255, 52.27130879 ] } },
{ "type": "Feature", "properties": { "station_number": "28959", "place_name": "Stadtpark Süd", "lat": "52,267794", "lng": "10,546637" }, "geometry": { "type": "Point", "coordinates": [ 10.546637, 52.267794 ] } },
{ "type": "Feature", "properties": { "station_number": "28960", "place_name": "Stöckheimer Markt", "lat": "52,213184", "lng": "10,522468" }, "geometry": { "type": "Point", "coordinates": [ 10.522468, 52.213184 ] } },
{ "type": "Feature", "properties": { "station_number": "28962", "place_name": "Campus Nord - Hörsaalgebäude", "lat": "52,28549479", "lng": "10,54081214" }, "geometry": { "type": "Point", "coordinates": [ 10.54081214, 52.28549479 ] } },
{ "type": "Feature", "properties": { "station_number": "28963", "place_name": "Campus Nord - Seminarräume", "lat": "52,28537247", "lng": "10,54211981" }, "geometry": { "type": "Point", "coordinates": [ 10.54211981, 52.28537247 ] } },
{ "type": "Feature", "properties": { "station_number": "28964", "place_name": "Campus Nord - IRW", "lat": "52,28517638", "lng": "10,54331203" }, "geometry": { "type": "Point", "coordinates": [ 10.54331203, 52.28517638 ] } },
{ "type": "Feature", "properties": { "station_number": "28965", "place_name": "Haus der Wissenschaft", "lat": "52,27472438", "lng": "10,52958398" }, "geometry": { "type": "Point", "coordinates": [ 10.52958398, 52.27472438 ] } },
{ "type": "Feature", "properties": { "station_number": "28966", "place_name": "Studierendenhaus", "lat": "52,27245648", "lng": "10,52841561" }, "geometry": { "type": "Point", "coordinates": [ 10.52841561, 52.27245648 ] } },
{ "type": "Feature", "properties": { "station_number": "28967", "place_name": "Fakultät Maschinenbau", "lat": "52,27362017", "lng": "10,52768869" }, "geometry": { "type": "Point", "coordinates": [ 10.52768869, 52.27362017 ] } },
{ "type": "Feature", "properties": { "station_number": "28968", "place_name": "Institut für Stahlbau", "lat": "52,28265877", "lng": "10,54525355" }, "geometry": { "type": "Point", "coordinates": [ 10.54525355, 52.28265877 ] } },
{ "type": "Feature", "properties": { "station_number": "28969", "place_name": "Hermann-Blenk-Straße - NFF", "lat": "52,31446533", "lng": "10,54345778" }, "geometry": { "type": "Point", "coordinates": [ 10.54345778, 52.31446533 ] } },
{ "type": "Feature", "properties": { "station_number": "28970", "place_name": "Hermann-Blenk-Straße - IFAS", "lat": "52,31411855", "lng": "10,54500026" }, "geometry": { "type": "Point", "coordinates": [ 10.54500026, 52.31411855 ] } },
{ "type": "Feature", "properties": { "station_number": "28972", "place_name": "Münzstraße", "lat": "52,2617509", "lng": "10,52340825" }, "geometry": { "type": "Point", "coordinates": [ 10.52340825, 52.2617509 ] } },
{ "type": "Feature", "properties": { "station_number": "28973", "place_name": "Hansestraße Ost", "lat": "52,30704751", "lng": "10,5134125" }, "geometry": { "type": "Point", "coordinates": [ 10.5134125, 52.30704751 ] } },
{ "type": "Feature", "properties": { "station_number": "28974", "place_name": "Freibad Raffteich", "lat": "52,2582023", "lng": "10,45528116" }, "geometry": { "type": "Point", "coordinates": [ 10.45528116, 52.2582023 ] } },
{ "type": "Feature", "properties": { "station_number": "28975", "place_name": "Hauptbahnhof Süd - Mobility Hub", "lat": "52,2517631", "lng": "10,54136038" }, "geometry": { "type": "Point", "coordinates": [ 10.54136038, 52.2517631 ] } },
{ "type": "Feature", "properties": { "station_number": "28977", "place_name": "Sportbad Heidberg", "lat": "52,23133483", "lng": "10,53676844" }, "geometry": { "type": "Point", "coordinates": [ 10.53676844, 52.23133483 ] } },
{ "type": "Feature", "properties": { "station_number": "28978", "place_name": "Kennelbad", "lat": "52,24293933", "lng": "10,52184942" }, "geometry": { "type": "Point", "coordinates": [ 10.52184942, 52.24293933 ] } },
{ "type": "Feature", "properties": { "station_number": "28979", "place_name": "Hagenmarkt", "lat": "52,26713311", "lng": "10,52511692" }, "geometry": { "type": "Point", "coordinates": [ 10.52511692, 52.26713311 ] } },
{ "type": "Feature", "properties": { "station_number": "28980", "place_name": "Tram-Depot", "lat": "52,25224953", "lng": "10,55716447" }, "geometry": { "type": "Point", "coordinates": [ 10.55716447, 52.25224953 ] } },
{ "type": "Feature", "properties": { "station_number": "28982", "place_name": "Zoo", "lat": "52,22168237", "lng": "10,51685391" }, "geometry": { "type": "Point", "coordinates": [ 10.51685391, 52.22168237 ] } },
{ "type": "Feature", "properties": { "station_number": "28986", "place_name": "Moorhüttenweg", "lat": "52,28345233", "lng": "10,58242718" }, "geometry": { "type": "Point", "coordinates": [ 10.58242718, 52.28345233 ] } },
{ "type": "Feature", "properties": { "station_number": "28987", "place_name": "Neustadtmühle", "lat": "52,26955681", "lng": "10,51836164" }, "geometry": { "type": "Point", "coordinates": [ 10.51836164, 52.26955681 ] } },
{ "type": "Feature", "properties": { "station_number": "28988", "place_name": "Ägidienmarkt ", "lat": "52,26053057", "lng": "10,52604884" }, "geometry": { "type": "Point", "coordinates": [ 10.52604884, 52.26053057 ] } },
{ "type": "Feature", "properties": { "station_number": "28989", "place_name": "Am Magnitor", "lat": "52,26152776", "lng": "10,53208548" }, "geometry": { "type": "Point", "coordinates": [ 10.53208548, 52.26152776 ] } },
{ "type": "Feature", "properties": { "station_number": "28990", "place_name": "Jakobstraße", "lat": "52,26199358", "lng": "10,51868911" }, "geometry": { "type": "Point", "coordinates": [ 10.51868911, 52.26199358 ] } },
{ "type": "Feature", "properties": { "station_number": "28991", "place_name": "Karrenführerstraße", "lat": "52,26142217", "lng": "10,5265135" }, "geometry": { "type": "Point", "coordinates": [ 10.5265135, 52.26142217 ] } },
{ "type": "Feature", "properties": { "station_number": "28992", "place_name": "Grinsekatz", "lat": "52,25198497", "lng": "10,52034176" }, "geometry": { "type": "Point", "coordinates": [ 10.52034176, 52.25198497 ] } },
{ "type": "Feature", "properties": { "station_number": "28994", "place_name": "Heidbergsee ", "lat": "52,22623931", "lng": "10,54530001" }, "geometry": { "type": "Point", "coordinates": [ 10.54530001, 52.22623931 ] } },
{ "type": "Feature", "properties": { "station_number": "28995", "place_name": "Am Lehmanger", "lat": "52,24198247", "lng": "10,4884522" }, "geometry": { "type": "Point", "coordinates": [ 10.4884522, 52.24198247 ] } },
{ "type": "Feature", "properties": { "station_number": "28996", "place_name": "Rheinring ", "lat": "52,24875648", "lng": "10,47200991" }, "geometry": { "type": "Point", "coordinates": [ 10.47200991, 52.24875648 ] } },
{ "type": "Feature", "properties": { "station_number": "28998", "place_name": "An den Gärtnerhöfen", "lat": "52,24526394", "lng": "10,4960687" }, "geometry": { "type": "Point", "coordinates": [ 10.4960687, 52.24526394 ] } },
{ "type": "Feature", "properties": { "station_number": "28999", "place_name": "Jugendherberge", "lat": "52,27061544", "lng": "10,5228116" }, "geometry": { "type": "Point", "coordinates": [ 10.5228116, 52.27061544 ] } },
{ "type": "Feature", "properties": { "station_number": "5275", "place_name": "Rudolfplatz", "lat": "52,27036928", "lng": "10,5015642" }, "geometry": { "type": "Point", "coordinates": [ 10.5015642, 52.27036928 ] } },
{ "type": "Feature", "properties": { "station_number": "5796", "place_name": "ALT - Domplatz", "lat": "52,26382709", "lng": "10,52342176" }, "geometry": { "type": "Point", "coordinates": [ 10.52342176, 52.26382709 ] } }
]
}
